0 ARIANE 44P R/B
1 25461U 98049B   13281.32158089  .00005047  00000-0  13846-2 0  5074
2 25461 004.1076 277.8535 6696624 224.3306 345.5376 03.03903217145858
0 ARIANE 44P R/B
1 25461U 98049B   13282.30573249  .00005125  00000-0  14328-2 0  5086
2 25461 004.1061 277.2772 6696302 225.4816 342.2347 03.03925183145881
0 ARIANE 44P R/B
1 25461U 98049B   13282.96494907  .00005100  00000-0  14438-2 0  5097
2 25461 004.1052 276.8904 6696114 226.2534 343.4797 03.03936106145902
0 ARIANE 44P R/B
1 25461U 98049B   13283.68567942  .00007239  00000-0  18615-2 0  5116
2 25461 004.1147 276.0918 6697995 227.4662 052.0970 03.03931208145923
0 ARIANE 44P R/B
1 25461U 98049B   13283.74513442  .00004646  00000-0  13395-2 0  5107
2 25461 004.1042 276.4356 6695873 227.1606 117.1069 03.03943678145921
0 ARIANE 44P R/B
1 25461U 98049B   13285.84023355  .00004603  00000-0  13605-2 0  5139
2 25461 004.1022 275.2056 6695176 229.6103 249.5715 03.03969292145993
0 ARIANE 44P R/B
1 25461U 98049B   13285.96875282  .00004584  00000-0  13545-2 0  5148
2 25461 004.1021 275.1302 6695151 229.7639 030.1932 03.03971946145997
0 ARIANE 44P R/B
1 25461U 98049B   13286.43579000  .00004513  00000-0  13369-2 0  5157
2 25461 004.1017 274.8571 6694985 230.3061 181.2601 03.03977313146005
0 ARIANE 44P R/B
1 25461U 98049B   13286.95360436  .00004721  00000-0  13937-2 0  5168
2 25461 004.1011 274.5521 6694858 230.9167 027.8925 03.03983416146020
0 ARIANE 44P R/B
1 25461U 98049B   13287.84053434  .00004743  00000-0  13980-2 0  5177
2 25461 004.1004 274.0333 6694538 231.9489 278.4802 03.03995186146048
0 ARIANE 44P R/B
1 25461U 98049B   13288.40884889  .00005151  00000-0  15130-2 0  5180
2 25461 004.0999 273.6995 6694309 232.6160 180.4045 03.04006369146069
0 ARIANE 44P R/B
1 25461U 98049B   13289.41698877  .00004559  00000-0  13363-2 0  5190
2 25461 004.0990 273.1072 6693970 233.7929 203.7181 03.04020555146095
0 ARIANE 44P R/B
1 25461U 98049B   13290.25704003  .00004933  00000-0  13217-2 0  5210
2 25461 004.0937 272.5534 6696222 234.8344 043.1487 03.04018939146119
0 ARIANE 44P R/B
1 25461U 98049B   13290.47844932  .00005059  00000-0  14791-2 0  5207
2 25461 004.0981 272.4828 6693669 235.0344 285.4510 03.04030886146122
0 ARIANE 44P R/B
1 25461U 98049B   13292.86666541  .00005097  00000-0  15151-2 0  5214
2 25461 004.0961 271.0779 6692942 237.8271 019.4215 03.04052942146205
0 ARIANE 44P R/B
1 25461U 98049B   13294.83862760  .00004749  00000-0  14558-2 0  5228
2 25461 004.0943 269.9087 6692363 240.1413 017.9342 03.04075879146269
